COSMOS 2534 [GLONASS-M] 
1 44299U 19030A   26178.32513172  .00000100  00000+0  00000+0 0  9998
2 44299  64.3693 192.2752 0013562 275.0761  81.5437  2.13102451 55135
BEIDOU-3 IGSO-2         
1 44337U 19035A   26180.61524971 -.00000094  00000+0  00000+0 0  9993
2 44337  55.2496 158.7537 0039563 216.3082 243.4006  1.00262956 25791
NAVSTAR 78 (USA 293)    
1 44506U 19056A   26180.36141240 -.00000095  00000+0  00000+0 0  9991
2 44506  55.6308 330.6592 0062613 197.7564 340.3084  2.00570210 50311
BEIDOU-3 M24            
1 44542U 19061A   26179.51848630  .00000079  00000+0  00000+0 0  9990
2 44542  54.3968 182.3453 0008540 358.6533   1.3666  1.86229281 46003
BEIDOU-3 M23            
1 44543U 19061B   26179.98127272  .00000076  00000+0  00000+0 0  9991
2 44543  54.3959 182.2982 0005837 339.0191 242.7984  1.86227665 46018
EUTELSAT 5 WEST B       
1 44624U 19067A   26180.37356255 -.00000031  00000+0  00000+0 0  9999
2 44624   0.0628 347.6880 0003472 109.6348 309.6099  1.00271597 24555
BEIDOU-3 M22            
1 44793U 19078A   26179.35847846 -.00000084  00000+0  00000+0 0  9993
2 44793  53.9250 299.4342 0006295  52.2108 307.8484  1.86227483 44852
BEIDOU-3 M21            
1 44794U 19078B   26178.96140830 -.00000087  00000+0  00000+0 0  9992
2 44794  53.8982 299.4091 0003978  49.1157 310.9195  1.86227959 44851
COSMOS 2544 [GLONASS-M] 
1 44850U 19088A   26176.94531591 -.00000063  00000+0  00000+0 0  9994
2 44850  65.5707  73.4383 0012923 257.6247 102.2670  2.13102928 50901
BEIDOU-3 M19            
1 44864U 19090A   26179.35129987 -.00000067  00000+0  00000+0 0  9996
2 44864  56.5682  62.4212 0017425 297.4344 161.4191  1.86231816 44444
BEIDOU-3 M20            
1 44865U 19090B   26180.41039279 -.00000056  00000+0  00000+0 0  9998
2 44865  56.5707  62.4211 0015172 311.8095 226.6993  1.86231898 44447
BEIDOU-3 G2             
1 45344U 20017A   26180.53308313 -.00000132  00000+0  00000+0 0  9998
2 45344   2.8886  47.5319 0002605  42.0980  99.9885  1.00271960 23389
COSMOS 2545 [GLONASS-M] 
1 45358U 20018A   26179.95584880 -.00000071  00000+0  00000+0 0  9995
2 45358  64.3473 312.0049 0008835 229.6158 130.2998  2.13102693 48911
BEIDOU-3 G3             
1 45807U 20040A   26180.53907913 -.00000345  00000+0  00000+0 0  9995
2 45807   2.4770  67.4762 0002577 331.6872 183.0831  1.00273361 22190
NAVSTAR 79 (USA 304)    
1 45854U 20041A   26180.36344941 -.00000069  00000+0  00000+0 0  9998
2 45854  56.6709  28.4721 0065346 204.0154 273.4058  2.00558844 44288
GALAXY 30 (G-30)        
1 46114U 20056C   26180.48169631  .00000048  00000+0  00000+0 0  9994
2 46114   0.0189  20.1116 0002274  74.9517 230.8958  1.00272508 21413
COSMOS 2547 [GLONASS-K] 
1 46805U 20075A   26178.26844155  .00000101  00000+0  00000+0 0  9996
2 46805  64.6001 192.1390 0009405 239.7377 120.2212  2.13100208 44121
NAVSTAR 80 (USA 309)    
1 46826U 20078A   26180.23933627  .00000075  00000+0  00000+0 0  9995
2 46826  53.9788 210.2896 0073938 207.5308 157.0262  2.00565188 41756
NAVSTAR 81 (USA 319)    
1 48859U 21054A   26179.72886770 -.00000098  00000+0  00000+0 0  9992
2 48859  55.1686 331.9958 0025783 228.3278 313.9526  2.00568605 36989
QZS-1R (MICHIBIKI-1R)   
1 49336U 21096A   26177.61891060 -.00000312  00000+0  00000+0 0  9992
2 49336  37.4804  79.4425 0755635 271.9684 279.4688  1.00253032 17101
GSAT0223 (GALILEO 27)   
1 49809U 21116A   26178.53905481 -.00000093  00000+0  00000+0 0  9991
2 49809  57.1576 341.3951 0001693 183.6278 169.3776  1.70476510 28351
GSAT0224 (GALILEO 28)   
1 49810U 21116B   26178.36614440 -.00000094  00000+0  00000+0 0  9997
2 49810  57.1577 341.3987 0001418 161.6476 197.8652  1.70476529 28375
COSMOS 2557 [GLONASS-K] 
1 52984U 22075A   26178.43265500 -.00000082  00000+0  00000+0 0  9992
2 52984  64.2922 314.1237 0010324 273.3478  86.5234  2.13102281 30933
COSMOS 2559 [GLONASS-K] 
1 54031U 22130A   26178.72156692 -.00000081  00000+0  00000+0 0  9991
2 54031  64.2645 314.1973 0012766 179.1655 180.8266  2.13101825 28910
COSMOS 2564 [GLONASS-M] 
1 54377U 22161A   26178.56481008  .00000099  00000+0  00000+0 0  9990
2 54377  64.7427 192.3671 0012257 225.0587 134.8937  2.13102113 27854
NAVSTAR 82 (USA 343)    
1 55268U 23009A   26178.92981966  .00000027  00000+0  00000+0 0  9991
2 55268  55.1241 148.0967 0006263 317.3274  46.4275  2.00570960 25469
BEIDOU-3 G4             
1 56564U 23066A   26180.54494617 -.00000270  00000+0  00000+0 0  9998
2 56564   0.4735 334.5980 0004938 175.4889 103.7638  1.00270148 11514
NVS-01 (IRNSS-1J)       
1 56759U 23076A   26180.55044823 -.00000323  00000+0  00000+0 0  9995
2 56759   2.1380 243.7873 0002820  10.2064 351.3640  1.00273540 11249
COSMOS 2569 [GLONASS-K2]
1 57517U 23114A   26179.51563696 -.00000038  00000+0  00000+0 0  9992
2 57517  65.3084  72.2385 0010262 296.5963  63.3487  2.13103866 22501
BEIDOU-3 M28            
1 58654U 23207A   26180.11237900 -.00000061  00000+0  00000+0 0  9998
2 58654  55.7632  61.9007 0002910 353.7174   6.3357  1.86229916 17065
BEIDOU-3 M26            
1 58655U 23207B   26179.37291464 -.00000068  00000+0  00000+0 0  9997
2 58655  55.7647  61.9122 0002589 322.9060  37.1290  1.86229888 17037
